[{"District_en":"Central & Western","District_cn":"中西區","Name_en":"Hong Kong Park Sports Centre","Name_cn":"香港公園體育館","Address_en":"29 Cotton Tree Drive, Central","Address_cn":"中環紅棉路29號","GIHS":"BzPifUxKW8","Size_en":"121m<sup>2<\/sup>","Size_cn":"121平方米","Phone":"2521 5072","Longitude":"114-9-33","Latitude":"22-16-38"},{"District_en":"Central & Western","District_cn":"中西區","Name_en":"Shek Tong Tsui Sports Centre","Name_cn":"石塘咀體育館","Address_en":"5\/F., 470 Queen's Road West","Address_cn":"皇后大道西470號5樓","GIHS":"RPCYeFHeZa","Size_en":"123m<sup>2<\/sup>","Size_cn":"123平方米","Phone":"2858 0541 ","Longitude":"114-8-10","Latitude":"22-17-9"},{"District_en":"Central & Western","District_cn":"中西區","Name_en":"Sheung Wan Sports Centre","Name_cn":"上環體育館","Address_en":"11\/F., 345 Queen's Road Central","Address_cn":"皇后大道中345號11字樓","GIHS":"GMT9taCJKG","Size_en":"216m<sup>2<\/sup>","Size_cn":"216平方米","Phone":"2853 2574 ","Longitude":"114-8-59","Latitude":"22-17-10"},{"District_en":"Central & Western","District_cn":"中西區","Name_en":"Smithfield Sports Centre","Name_cn":"士美非路體育館","Address_en":"4\/F, Smithfield Municipal Services Building, 12K Smithfield, Kennedy Town, Hong Kong","Address_cn":"香港堅尼地城士美菲路12K號士美非路市政大廈4樓","GIHS":"GmqL1kydga","Size_en":"234m<sup>2<\/sup>","Size_cn":"234平方米","Phone":"2855 7321 ","Longitude":"114-7-43","Latitude":"22-16-55"},{"District_en":"Central & Western","District_cn":"中西區","Name_en":"Sun Yat Sen Memorial Park Sports Centre","Name_cn":"中山紀念公園體育館","Address_en":"18 Eastern Street North, Western","Address_cn":"西營盤東邊街北18號","GIHS":"vx49I0ELOm","Size_en":"125m<sup>2<\/sup>","Size_cn":"125平方米","Phone":"2858 2493","Longitude":"114-8-37","Latitude":"22-17-25"},{"District_en":"Eastern","District_cn":"東區","Name_en":"Chai Wan Sports Centre","Name_cn":"柴灣體育館","Address_en":"Yee Shun Street, Chai Wan","Address_cn":"柴灣怡順街","GIHS":"C2cPEbqrpV","Size_en":"127m<sup>2<\/sup>","Size_cn":"127平方米","Phone":"2897 9144 ","Longitude":"114-14-24","Latitude":"22-15-53"},{"District_en":"Eastern","District_cn":"東區","Name_en":"Island East Sports Centre","Name_cn":"港島東體育館","Address_en":"52 Lei King Road, Sai Wan Ho","Address_cn":"西灣河鯉景道52號","GIHS":"Ks0Zeqlua7","Size_en":"124m<sup>2<\/sup>","Size_cn":"124平方米","Phone":"2151 4070","Longitude":"114-13-20","Latitude":"22-17-5"},{"District_en":"Eastern","District_cn":"東區","Name_en":"Quarry Bay Sports Centre","Name_cn":"鰂魚涌體育館","Address_en":"6\/F., Quarry Bay Complex, 38 Quarry Bay Street","Address_cn":"鰂魚涌街38號鰂魚涌市政大廈6字樓","GIHS":"edmvHp5opH","Size_en":"165m<sup>2<\/sup>","Size_cn":"165平方米","Phone":"2562 0374 ","Longitude":"114-12-42","Latitude":"22-17-1"},{"District_en":"Islands","District_cn":"離島區","Name_en":"Cheung Chau Sports Centre","Name_cn":"長洲體育館","Address_en":"Nam She Tong, Cheung Chau","Address_cn":"長洲南蛇塘","GIHS":"ZvenzVSC6B","Size_en":"104m<sup>2<\/sup>","Size_cn":"104平方米","Phone":"2981 6285 ","Longitude":"114-1-52","Latitude":"22-12-27"},{"District_en":"Islands","District_cn":"離島區","Name_en":"Mui Wo Sports Centre","Name_cn":"梅窩體育館","Address_en":"Mui Wo Municipal Services Building, 9 Ngan Shek Street, Mui Wo","Address_cn":"梅窩銀石街9號梅窩市政大廈","GIHS":"nD4LTc5Mzo","Size_en":"114m<sup>2<\/sup>","Size_cn":"114平方米","Phone":"2984 2334 ","Longitude":"113-59-47","Latitude":"22-16-1"},{"District_en":"Islands","District_cn":"離島區","Name_en":"Peng Chau Sports Centre","Name_cn":"坪洲體育館","Address_en":"Peng Chau Municipal Services Building, 6 Po Ping Street, Peng Chau","Address_cn":"坪洲寶坪街6號坪洲市政大廈","GIHS":"JwMz81ecy1","Size_en":"101m<sup>2<\/sup>","Size_cn":"101平方米","Phone":"2983 1271 ","Longitude":"114-2-17","Latitude":"22-17-6"},{"District_en":"Islands","District_cn":"離島區","Name_en":"Tung Chung Man Tung Road Sports Centre","Name_cn":"東涌文東路體育館","Address_en":"2\/F Tung Chung Municipal Services Building, 39 Man Tung Road, Tung Chung, N.T.","Address_cn":"新界東涌文東路39號東涌巿政大樓2樓","GIHS":"dHsPb8snlq","Size_en":"189m<sup>2<\/sup>","Size_cn":"189平方米","Phone":"2109 2421 ","Longitude":"113-56-38","Latitude":"22-17-26"},{"District_en":"Kowloon City","District_cn":"九龍城區","Name_en":"Fat Kwong Street Sports Centre","Name_cn":"佛光街體育館","Address_en":"18 Good Shepherd Street, Ho Man Tin","Address_cn":"何文田牧愛街18號","GIHS":"2z7MIIefEy","Size_en":"108m<sup>2<\/sup>","Size_cn":"108平方米","Phone":"2712 2652","Longitude":"114-10-52","Latitude":"22-18-53"},{"District_en":"Kowloon City","District_cn":"九龍城區","Name_en":"Ho Man Tin Sports Centre","Name_cn":"何文田體育館","Address_en":"1 Chung Yee Street, Ho Man Tin","Address_cn":"何文田忠義街1號","GIHS":"72Zzw9WrNL","Size_en":"408m<sup>2<\/sup>","Size_cn":"408平方米","Phone":"2762 7837","Longitude":"114-10-52","Latitude":"22-18-43"},{"District_en":"Kowloon City","District_cn":"九龍城區","Name_en":"To Kwa Wan Sports Centre","Name_cn":"土瓜灣體育館","Address_en":"66 Ha Heung Road, To Kwa Wan","Address_cn":"土瓜灣下鄉道66號","GIHS":"4Sk1jN8EAV","Size_en":"67m<sup>2<\/sup>","Size_cn":"67平方米","Phone":"2364 9285 ","Longitude":"114-11-24","Latitude":"22-19-8"},{"District_en":"Kwai Tsing","District_cn":"葵青區","Name_en":"Cheung Fat Sports Centre","Name_cn":"長發體育館","Address_en":"4\/F., Cheung Fat Plaza, Cheung Fat Estate, Tsing Yi","Address_cn":"青衣長發邨長發廣場4樓","GIHS":"HxiWNNWV1l","Size_en":"97m<sup>2<\/sup>","Size_cn":"97平方米","Phone":"2433 5886 ","Longitude":"114-6-10","Latitude":"22-21-45"},{"District_en":"Kwai Tsing","District_cn":"葵青區","Name_en":"Fung Shue Wo Sports Centre","Name_cn":"楓樹窩體育館","Address_en":"Phase II, Tsing Yi Estate, 10 Fung Shue Wo Road, Tsing Yi","Address_cn":"青衣楓樹窩路10號青衣邨第二期","GIHS":"X8hWihu6IQ","Size_en":"146m<sup>2<\/sup>","Size_cn":"146平方米","Phone":"2433 6523 ","Longitude":"114-6-10","Latitude":"22-21-20"},{"District_en":"Kwai Tsing","District_cn":"葵青區","Name_en":"Lai King Sports Centre","Name_cn":"荔景體育館","Address_en":"Lai Cho Road, Lai King, Kwai Chung","Address_cn":"葵涌荔景麗祖路","GIHS":"bbCDTEJM3N","Size_en":"120m<sup>2<\/sup>","Size_cn":"120平方米","Phone":"2744 5678 ","Longitude":"114-7-40","Latitude":"22-20-59"},{"District_en":"Kwai Tsing","District_cn":"葵青區","Name_en":"North Kwai Chung Tang Shiu Kin Sports Centre","Name_cn":"北葵涌鄧肇堅體育館","Address_en":"292 Wo Yi Hop Road, Kwai Chung","Address_cn":"葵涌和宜合道292號","GIHS":"0ydU9SRptM","Size_en":"63m<sup>2<\/sup>","Size_cn":"63平方米","Phone":"2426 3269 ","Longitude":"114-8-15","Latitude":"22-22-26"},{"District_en":"Kwai Tsing","District_cn":"葵青區","Name_en":"Osman Ramju Sadick Memorial Sports Centre","Name_cn":"林士德體育館","Address_en":"176 Hing Fong Road, Kwai Chung","Address_cn":"葵涌興芳路176號","GIHS":"HEqmpuhKek","Size_en":"86m<sup>2<\/sup>","Size_cn":"86平方米","Phone":"2422 5610 ","Longitude":"114-7-46","Latitude":"22-21-40"},{"District_en":"Kwai Tsing","District_cn":"葵青區","Name_en":"Tai Wo Hau Sports Centre","Name_cn":"大窩口體育館","Address_en":"Tai Ha Street, Tai Wo Hau Estate, Kwai Chung","Address_cn":"葵涌大窩口大廈街","GIHS":"3FeNLYvXCy","Size_en":"104m<sup>2<\/sup>","Size_cn":"104平方米","Phone":"2920 2011 ","Longitude":"114-7-30","Latitude":"22-22-13"},{"District_en":"Kwai Tsing","District_cn":"葵青區","Name_en":"Tsing Yi Sports Centre","Name_cn":"青衣體育館","Address_en":"2\/F., Tsing Yi Municipal Services Building, 38 Tsing Luk Street, Tsing Yi","Address_cn":"青衣青綠街38號青衣市政大廈2樓","GIHS":"6kKCJuGvX9","Size_en":"86m<sup>2<\/sup>","Size_cn":"86平方米","Phone":"2495 4631 ","Longitude":"114-6-23","Latitude":"22-21-15"},{"District_en":"Kwun Tong","District_cn":"觀塘區","Name_en":"Lam Tin South Sports Centre","Name_cn":"藍田(南)體育館","Address_en":"170 Pik Wan Road, Lam Tin","Address_cn":"藍田碧雲道170號","GIHS":"pEIqhGVtHw","Size_en":"125m<sup>2<\/sup>","Size_cn":"125平方米","Phone":"2379 9254 ","Longitude":"114-14-20","Latitude":"22-18-14"},{"District_en":"Kwun Tong","District_cn":"觀塘區","Name_en":"Lei Yue Mun Sports Centre","Name_cn":"鯉魚門體育館","Address_en":"2\/F., Lei Yue Mun Municipal Services Building, 6 Lei Yue Mun Path, Yau Tong, Kwun Tong","Address_cn":"觀塘油塘鯉魚門徑6號鯉魚門市政大廈2字樓","GIHS":"50LZ5tO27J","Size_en":"115m<sup>2<\/sup>","Size_cn":"115平方米","Phone":"2349 3954 ","Longitude":"114-14-19","Latitude":"22-17-31"},{"District_en":"Kwun Tong","District_cn":"觀塘區","Name_en":"Ngau Tau Kok Road Sports Centre","Name_cn":"牛頭角道體育館","Address_en":"4\/F, Ngau Tak Kok Municipal Services Building, 183 Ngau Tau Kok Road","Address_cn":"牛頭角道183號牛頭角市政大廈4樓","GIHS":"HQm0TPc2QU","Size_en":"183m<sup>2<\/sup>","Size_cn":"183平方米","Phone":"2756 3466 ","Longitude":"114-12-59","Latitude":"22-19-17"},{"District_en":"Kwun Tong","District_cn":"觀塘區","Name_en":"Shun Lee Tsuen Sports Centre","Name_cn":"順利邨體育館","Address_en":"No.33, Shun Lee Tsuen Road, Kwun Tong","Address_cn":"觀塘順利邨道33號","GIHS":"kUp9po8NdI","Size_en":"120m<sup>2<\/sup>","Size_cn":"120平方米","Phone":"2951 4136 ","Longitude":"114-13-32","Latitude":"22-19-47"},{"District_en":"North","District_cn":"北區","Name_en":"Luen Wo Hui Sports Centre","Name_cn":"聯和墟體育館","Address_en":"3\/F., 9 Wo Mun Street, Luen Wo Hui, Fanling","Address_cn":"粉嶺和滿街9號3樓","GIHS":"beSpGJQrvL","Size_en":"172m<sup>2<\/sup>","Size_cn":"172平方米","Phone":"2677 5149","Longitude":"114-8-42","Latitude":"22-30-1"},{"District_en":"North","District_cn":"北區","Name_en":"Lung Sum Avenue Sports Centre","Name_cn":"龍琛路體育館","Address_en":"155 Jockey Club Road, Sheung Shui","Address_cn":"上水馬會道155號","GIHS":"UcROxefkA9","Size_en":"91m<sup>2<\/sup>","Size_cn":"91平方米","Phone":"2673 4433","Longitude":"114-7-50","Latitude":"22-30-18"},{"District_en":"North","District_cn":"北區","Name_en":"Po Wing Road Sports Centre","Name_cn":"保榮路體育館","Address_en":"19 Pak Wo Road, Sheung Shui","Address_cn":"上水百和路19號","GIHS":"NaDMA7XHJI","Size_en":"362m<sup>2<\/sup>","Size_cn":"362平方米","Phone":"2639 2979 ","Longitude":"114-7-42","Latitude":"22-29-49"},{"District_en":"North","District_cn":"北區","Name_en":"Tin Ping Sports Centre","Name_cn":"天平體育館","Address_en":"3\/F., Tin Ping Estate Shopping Centre, Tin Ping Estate, Sheung Shui","Address_cn":"上水天平邨天平商場3樓","GIHS":"Ut6jiYpSXV","Size_en":"64m<sup>2<\/sup>","Size_cn":"64平方米","Phone":"2673 3699 ","Longitude":"114-8-1","Latitude":"22-30-12"},{"District_en":"North","District_cn":"北區","Name_en":"Wo Hing Sports Centre","Name_cn":"和興體育館","Address_en":"8 Wo Ming Lane, Fanling","Address_cn":"粉嶺和鳴里8號","GIHS":"9r9fhG3Vwe","Size_en":"118m<sup>2<\/sup>","Size_cn":"118平方米","Phone":"2669 7057 ","Longitude":"114-8-35","Latitude":"22-29-5"},{"District_en":"Sai Kung","District_cn":"西貢區","Name_en":"Hang Hau Sports Centre","Name_cn":"坑口體育館","Address_en":"1\/F, Sai Kung Tseung Kwan O Government Complex, 38 Pui Shing Road, Tseung Kwan O","Address_cn":"將軍澳培成路38號西貢將軍澳政府綜合大樓1樓","GIHS":"979T1t2VXr","Size_en":"332m<sup>2<\/sup>","Size_cn":"332平方米","Phone":"2623 5928","Longitude":"114-16-6","Latitude":"22-19-2"},{"District_en":"Sai Kung","District_cn":"西貢區","Name_en":"Hong Kong Velodrome","Name_cn":"香港單車館","Address_en":"107 Po Hong Road, Tseung Kwan O","Address_cn":"將軍澳寶康路107號","GIHS":"H6n7tqG0GE","Size_en":"326m<sup>2<\/sup>","Size_cn":"326平方米","Phone":"2878 8622","Longitude":"114-15-45","Latitude":"22-18-47"},{"District_en":"Sai Kung","District_cn":"西貢區","Name_en":"Po Lam Sports Centre","Name_cn":"寶林體育館","Address_en":"Po Lam Estate, Tseung Kwan O","Address_cn":"將軍澳寶林邨","GIHS":"beRdrUruU3","Size_en":"108m<sup>2<\/sup>","Size_cn":"108平方米","Phone":"2701 5918","Longitude":"114-15-18","Latitude":"22-19-33"},{"District_en":"Sai Kung","District_cn":"西貢區","Name_en":"Tiu Keng Leng Sports Centre","Name_cn":"調景嶺體育館","Address_en":"2 Chui Ling Road, Tseung Kwan O","Address_cn":"將軍澳翠嶺路2號","GIHS":"4w24kA9ZGA","Size_en":"285m<sup>2<\/sup>","Size_cn":"285平方米","Phone":"2481 5033","Longitude":"114-15-17","Latitude":"22-18-22"},{"District_en":"Sai Kung","District_cn":"西貢區","Name_en":"Tseung Kwan O Sports Centre","Name_cn":"將軍澳體育館","Address_en":"9 Wan Lung Road, Tseung Kwan O","Address_cn":"將軍澳運隆路9號","GIHS":"oJ7gIWYsqo","Size_en":"117m<sup>2<\/sup>","Size_cn":"117平方米","Phone":"2701 2317","Longitude":"114-15-35","Latitude":"22-19-2"},{"District_en":"Sai Kung","District_cn":"西貢區","Name_en":"Tsui Lam Sports Centre","Name_cn":"翠林體育館","Address_en":"Tsui Lam Estate, Tseung Kwan O","Address_cn":"將軍澳翠林邨","GIHS":"uLu7BSox9C","Size_en":"121m<sup>2<\/sup>","Size_cn":"121平方米","Phone":"2703 1137","Longitude":"114-14-58","Latitude":"22-19-20"},{"District_en":"Sha Tin","District_cn":"沙田區","Name_en":"Heng On Sports Centre","Name_cn":"恒安體育館","Address_en":"4\/F., Heng On Commercial Centre, Heng On Estate, Sha Tin","Address_cn":"沙田恆安邨恆安商場4樓","GIHS":"gxft8py3L7","Size_en":"59m<sup>2<\/sup>","Size_cn":"59平方米","Phone":"2642 0203 ","Longitude":"114-13-40","Latitude":"22-25-0"},{"District_en":"Sha Tin","District_cn":"沙田區","Name_en":"Hin Keng Sports Centre","Name_cn":"顯徑體育館","Address_en":"Hin Keng Commercial Centre, Hin Keng Estate, Sha Tin","Address_cn":"沙田顯徑邨顯徑商場","GIHS":"VY4Pv069oT","Size_en":"62m<sup>2<\/sup>","Size_cn":"62平方米","Phone":"2605 8407 ","Longitude":"114-10-17","Latitude":"22-21-47"},{"District_en":"Sha Tin","District_cn":"沙田區","Name_en":"Ma On Shan Sports Centre","Name_cn":"馬鞍山體育館","Address_en":"14 On Chun Street, Ma On Shan, N.T.","Address_cn":"沙田馬鞍山鞍駿街14號","GIHS":"rOCazl5GqH","Size_en":"108m<sup>2<\/sup>","Size_cn":"108平方米","Phone":"2631 1597 ","Longitude":"114-13-46","Latitude":"22-25-34"},{"District_en":"Sha Tin","District_cn":"沙田區","Name_en":"Mei Lam Sports Centre","Name_cn":"美林體育館","Address_en":"Mei Lam Estate, Sha Tin","Address_cn":"沙田美林邨","GIHS":"v0sGoqLf5C","Size_en":"122m<sup>2<\/sup>","Size_cn":"122平方米","Phone":"2695 9318","Longitude":"114-10-32","Latitude":"22-22-45"},{"District_en":"Sha Tin","District_cn":"沙田區","Name_en":"Yuen Chau Kok Sports Centre","Name_cn":"圓洲角體育館","Address_en":"35 Ngan Shing Street, Sha Tin, N.T.","Address_cn":"沙田銀城街35號","GIHS":"ynd05jJTiK","Size_en":"278m<sup>2<\/sup>","Size_cn":"278平方米","Phone":"2509 9108","Longitude":"114-12-16","Latitude":"22-22-47"},{"District_en":"Sha Tin","District_cn":"沙田區","Name_en":"Yuen Wo Road Sports Centre","Name_cn":"源禾路體育館","Address_en":"8 Yuen Wo Road, Sha Tin","Address_cn":"沙田源禾路8號","GIHS":"tyMJ15v7En","Size_en":"93m<sup>2<\/sup>","Size_cn":"93平方米","Phone":"2604 5987 ","Longitude":"114-11-33","Latitude":"22-22-59"},{"District_en":"Sham Shui Po","District_cn":"深水埗區","Name_en":"Pei Ho Street Sports Centre","Name_cn":"北河街體育館","Address_en":"5\/F., Pei Ho Street Municipal Services Building, 333 Ki Lung Street, Sham Shui Po","Address_cn":"深水埗基隆街333號北河街市政大廈5字樓","GIHS":"ZSyCSrj3cj","Size_en":"159m<sup>2<\/sup>","Size_cn":"159平方米","Phone":"2729 1010 ","Longitude":"114-9-40","Latitude":"22-19-45"},{"District_en":"Sham Shui Po","District_cn":"深水埗區","Name_en":"Po On Road Sports Centre","Name_cn":"保安道體育館","Address_en":"2\/F., Po On Road Municipal Services Building, 325-329 Po On Road, Sham Shui Po","Address_cn":"深水埗保安道325-329號保安道市政大廈2字樓","GIHS":"RnO78CrxyU","Size_en":"231m<sup>2<\/sup>","Size_cn":"231平方米","Phone":"2729 4237 ","Longitude":"114-9-27","Latitude":"22-20-19"},{"District_en":"Sham Shui Po","District_cn":"深水埗區","Name_en":"Shek Kip Mei Park Sports Centre","Name_cn":"石硤尾公園體育館","Address_en":"290 Nam Cheong Street, Sham Shui Po","Address_cn":"深水埗南昌街290號","GIHS":"6FcFsDbhcX","Size_en":"138m<sup>2<\/sup>","Size_cn":"138平方米","Phone":"2784 7424 ","Longitude":"114-10-12","Latitude":"22-20-14"},{"District_en":"Southern","District_cn":"南區","Name_en":"Aberdeen Sports Centre","Name_cn":"香港仔體育館","Address_en":"5\/F., Aberdeen Municipal Services Building, 203 Aberdeen Main Road, Aberdeen","Address_cn":"香港仔大道203號香港仔市政大廈5字樓","GIHS":"80hSCBcAOQ","Size_en":"165m<sup>2<\/sup>","Size_cn":"165平方米","Phone":"2555 8909 ","Longitude":"114-9-16","Latitude":"22-14-58"},{"District_en":"Southern","District_cn":"南區","Name_en":"Aberdeen Tennis and Squash Centre","Name_cn":"香港仔網球及壁球中心","Address_en":"No. 1, Aberdeen Praya Road, Hong Kong","Address_cn":"香港仔海傍道1號","GIHS":"MA5kQ8qVY2","Size_en":"125m<sup>2<\/sup>","Size_cn":"125平方米","Phone":"2553 6130 ","Longitude":"114-9-36","Latitude":"22-14-51"},{"District_en":"Southern","District_cn":"南區","Name_en":"Ap Lei Chau Sports Centre ","Name_cn":"鴨脷洲體育館","Address_en":"8 Hung Shing Street, Ap Lei Chau","Address_cn":"鴨脷洲洪聖街8號","GIHS":"1cydaZdr9K","Size_en":"115m<sup>2<\/sup>","Size_cn":"115平方米","Phone":"2554 0832","Longitude":"114-9-20","Latitude":"22-14-40"},{"District_en":"Tai Po","District_cn":"大埔區","Name_en":"Fu Heng Sports Centre","Name_cn":"富亨體育館","Address_en":"1\/F., Fu Heng Shopping Centre, Fu Heng Estate, Tai Po","Address_cn":"大埔富亨邨富亨商場1字樓","GIHS":"R7UxGtPcMs","Size_en":"108m<sup>2<\/sup>","Size_cn":"108平方米","Phone":"2665 2753 ","Longitude":"114-10-17","Latitude":"22-27-30"},{"District_en":"Tai Po","District_cn":"大埔區","Name_en":"Fu Shin Sports Centre","Name_cn":"富善體育館","Address_en":"6\/F., Multi Car-Park Building, Fu Shin Estate, Tai Po","Address_cn":"大埔富善邨停車場7樓","GIHS":"vZEY1z8K27","Size_en":"95m<sup>2<\/sup>","Size_cn":"95平方米","Phone":"2661 4144","Longitude":"114-10-27","Latitude":"22-27-14"},{"District_en":"Tai Po","District_cn":"大埔區","Name_en":"Tai Po Hui Sports Centre","Name_cn":"大埔墟體育館","Address_en":"6\/F., Tai Po Complex, 8 Heung Sze Wui Street, Tai Po","Address_cn":"大埔鄉事會街8號大埔綜合大樓6樓","GIHS":"OiNS4XSkjd","Size_en":"215m<sup>2<\/sup>","Size_cn":"215平方米","Phone":"3183 9011","Longitude":"114-9-60","Latitude":"22-26-46"},{"District_en":"Tai Po","District_cn":"大埔區","Name_en":"Tai Po Sports Centre","Name_cn":"大埔體育館","Address_en":"13 Ting Tai Road, Tai Po","Address_cn":"大埔汀太路13號","GIHS":"fqPlVbs4pZ","Size_en":"108m<sup>2<\/sup>","Size_cn":"108平方米","Phone":"2664 7222","Longitude":"114-9-54","Latitude":"22-27-19"},{"District_en":"Tai Po","District_cn":"大埔區","Name_en":"Tai Wo Sports Centre","Name_cn":"太和體育館","Address_en":"Podium Level, Tai Wo Shopping Centre, Tai Wo Estate, Tai Po","Address_cn":"大埔太和邨太和商場平台","GIHS":"GTuuq81NTF","Size_en":"104m<sup>2<\/sup>","Size_cn":"104平方米","Phone":"2656 3398 ","Longitude":"114-9-38","Latitude":"22-27-4"},{"District_en":"Tsuen Wan","District_cn":"荃灣區","Name_en":"Tsuen Wan West Sports Centre","Name_cn":"荃灣西約體育館","Address_en":"68 Hoi On Street, Tsuen Wan","Address_cn":"荃灣海安路68號","GIHS":"1m8aWUApNi","Size_en":"51m<sup>2<\/sup>","Size_cn":"51平方米","Phone":"2412 0904 ","Longitude":"114-6-2","Latitude":"22-22-14"},{"District_en":"Tsuen Wan","District_cn":"荃灣區","Name_en":"Wai Tsuen Sports Centre","Name_cn":"蕙荃體育館","Address_en":"6 Miu Kong Street, Tsuen Wan","Address_cn":"荃灣廟崗街6號","GIHS":"UioMm8tCCe","Size_en":"103m<sup>2<\/sup>","Size_cn":"103平方米","Phone":"2415 2621 ","Longitude":"114-7-21","Latitude":"22-22-20"},{"District_en":"Tsuen Wan","District_cn":"荃灣區","Name_en":"Yeung Uk Road Sports Centre","Name_cn":"楊屋道體育館","Address_en":"4\/F., Yeung Uk Road Municipal Services Building, 45 Yeung Uk Road, Tsuen Wan","Address_cn":"荃灣楊屋道45號楊屋道市政大廈4樓 ","GIHS":"NRKmwY0FTv","Size_en":"100m<sup>2<\/sup>","Size_cn":"100平方米","Phone":"2415 4445 ","Longitude":"114-6-52","Latitude":"22-22-8"},{"District_en":"Tuen Mun","District_cn":"屯門區","Name_en":"Leung Tin Sports Centre","Name_cn":"良田體育館","Address_en":"4\/F., Carpark Building, Tin King Estate, Tuen Mun","Address_cn":"屯門田景邨停車場4字樓","GIHS":"XxdrxTnbR3","Size_en":"107m<sup>2<\/sup>","Size_cn":"107平方米","Phone":"2467 1594 ","Longitude":"113-57-54","Latitude":"22-24-24"},{"District_en":"Tuen Mun","District_cn":"屯門區","Name_en":"Tai Hing Sports Centre","Name_cn":"大興體育館","Address_en":"Tsing Chung Koon Road, Tuen Mun","Address_cn":"屯門青松觀路","GIHS":"F2yrtLLjXO","Size_en":"88m<sup>2<\/sup>","Size_cn":"88平方米","Phone":"2463 1260 ","Longitude":"113-58-23","Latitude":"22-24-12"},{"District_en":"Tuen Mun","District_cn":"屯門區","Name_en":"The Jockey Club Tuen Mun Butterfly Beach Sports Centre","Name_cn":"賽馬會屯門蝴蝶灣體育館","Address_en":"Wu Shan Road, Tuen Mun","Address_cn":"屯門湖山路","GIHS":"Y4Fq1FJuTb","Size_en":"94m<sup>2<\/sup>","Size_cn":"94平方米","Phone":"2465 7610 ","Longitude":"113-57-53","Latitude":"22-22-43"},{"District_en":"Tuen Mun","District_cn":"屯門區","Name_en":"Yau Oi Sports Centre","Name_cn":"友愛體育館","Address_en":"Hing On Lane, Tuen Mun","Address_cn":"屯門興安里","GIHS":"3WuK7QCTur","Size_en":"101m<sup>2<\/sup>","Size_cn":"101平方米","Phone":"2450 8850 ","Longitude":"113-58-18","Latitude":"22-23-8"},{"District_en":"Wan Chai","District_cn":"灣仔區","Name_en":"Harbour Road Sports Centre","Name_cn":"港灣道體育館","Address_en":"27 Harbour Road, Wan Chai","Address_cn":"灣仔港灣道27號","GIHS":"g4IruLFo98","Size_en":"254m<sup>2<\/sup>","Size_cn":"254平方米","Phone":"2827 9684","Longitude":"114-10-35","Latitude":"22-16-53"},{"District_en":"Wan Chai","District_cn":"灣仔區","Name_en":"Lockhart Road Sports Centre","Name_cn":"駱克道體育館","Address_en":"10\/F., Lockhart Road Municipal Services Building, 225 Hennessy Road, Wan Chai","Address_cn":"灣仔軒尼詩道225號駱克道市政大廈10樓","GIHS":"RWVzP9IL4W","Size_en":"75m<sup>2<\/sup><br>50m<sup>2<\/sup>","Size_cn":"75平方米<br>50平方米","Phone":"2879 5521 ","Longitude":"114-10-32","Latitude":"22-16-41"},{"District_en":"Wong Tai Sin","District_cn":"黃大仙區","Name_en":"Choi Hung Road Sports Centre","Name_cn":"彩虹道體育館","Address_en":"150 Choi Hung Road, Wong Tai Sin","Address_cn":"黃大仙彩虹道150號","GIHS":"QoeL48TDSd","Size_en":"137m<sup>2<\/sup>","Size_cn":"137平方米","Phone":"2326 2714 ","Longitude":"114-11-47","Latitude":"22-20-14"},{"District_en":"Wong Tai Sin","District_cn":"黃大仙區","Name_en":"Chuk Yuen Sports Centre","Name_cn":"竹園體育館","Address_en":"Chuk Yuen North Estate, Chuk Yuen Road, Wong Tai Sin","Address_cn":"黃大仙竹園道竹園北邨","GIHS":"mpiOqHLiP9","Size_en":"116m<sup>2<\/sup>","Size_cn":"116平方米","Phone":"2324 3960","Longitude":"114-11-37","Latitude":"22-20-44"},{"District_en":"Wong Tai Sin","District_cn":"黃大仙區","Name_en":"Po Kong Village Road Sports Centre","Name_cn":"蒲崗村道體育館","Address_en":"120 Po Kong Village Road, Wong Tai Sin","Address_cn":"黃大仙蒲崗村道120號","GIHS":"jMjijMXhQk","Size_en":"120m<sup>2<\/sup>","Size_cn":"120平方米","Phone":"2325 3585 ","Longitude":"114-12-6","Latitude":"22-20-44"},{"District_en":"Yau Tsim Mong","District_cn":"油尖旺區","Name_en":"Fa Yuen Street Sports Centre","Name_cn":"花園街體育館","Address_en":"10\/F., Fa Yuen Street Municipal Services Building, 123A Fa Yuen Street, Mongkok","Address_cn":"旺角花園街123號A花園街市政大廈10字樓","GIHS":"xQJ66ObwoT","Size_en":"170m<sup>2<\/sup>","Size_cn":"170平方米","Phone":"2395 1501 ","Longitude":"114-10-15","Latitude":"22-19-15"},{"District_en":"Yau Tsim Mong","District_cn":"油尖旺區","Name_en":"Kowloon Park Sports Centre","Name_cn":"九龍公園體育館","Address_en":"22 Austin Road, Tsim Sha Tsui","Address_cn":"尖沙咀柯士甸道22號","GIHS":"iYVv4IDneF","Size_en":"169m<sup>2<\/sup>","Size_cn":"169平方米","Phone":"2724 3120\/2724 3344 ","Longitude":"114-10-12","Latitude":"22-18-7"},{"District_en":"Yau Tsim Mong","District_cn":"油尖旺區","Name_en":"Kwun Chung Sports Centre","Name_cn":"官涌體育館","Address_en":"5\/F., Kwun Chung Municipal Services Building, 17 Bowring Street, Jordan","Address_cn":"佐敦寶靈街17號官涌市政大廈5字樓","GIHS":"EHRIsWEa6z","Size_en":"240m<sup>2<\/sup>","Size_cn":"240平方米","Phone":"2302 1275 ","Longitude":"114-10-6","Latitude":"22-18-16"},{"District_en":"Yau Tsim Mong","District_cn":"油尖旺區","Name_en":"Tai Kok Tsui Sports Centre","Name_cn":"大角咀體育館","Address_en":"6\/F., Tai Kok Tsui Municipal Services Building, 63 Fuk Tsun Street, Tai Kok Tsui, Kowloon","Address_cn":"九龍大角咀褔全街63號大角咀市政大廈6樓","GIHS":"jn4MU7P4XN","Size_en":"335m<sup>2<\/sup>","Size_cn":"335平方米","Phone":"2393 1084","Longitude":"114-9-46","Latitude":"22-19-19"},{"District_en":"Yuen Long","District_cn":"元朗區","Name_en":"Fung Kam Street Sports Centre","Name_cn":"鳳琴街體育館","Address_en":"Fung Yau Street North, Yuen Long","Address_cn":"元朗鳳攸北街","GIHS":"aO5EydtbDY","Size_en":"56m<sup>2<\/sup>","Size_cn":"56平方米","Phone":"2475 2334 ","Longitude":"114-1-59","Latitude":"22-26-35"},{"District_en":"Yuen Long","District_cn":"元朗區","Name_en":"Long Ping Sports Centre","Name_cn":"朗屏體育館","Address_en":"2\/F., Long Ping Commercial Centre, Long Ping Estate, Yuen Long","Address_cn":"元朗朗屏邨朗屏商場2樓","GIHS":"GkGGfEvTGQ","Size_en":"70m<sup>2<\/sup>","Size_cn":"70平方米","Phone":"2475 2404\/2475 1444 ","Longitude":"114-1-23","Latitude":"22-27-1"},{"District_en":"Yuen Long","District_cn":"元朗區","Name_en":"Tin Fai Road Sports Centre","Name_cn":"天暉路體育館","Address_en":"63 Tin Shui Road, Tin Shui Wai, NT","Address_cn":"新界天水圍天瑞路63號","GIHS":"iovenAqhn8","Size_en":"130m<sup>2<\/sup>","Size_cn":"130平方米","Phone":"2473 0229 ","Longitude":"113-59-49","Latitude":"22-27-53"},{"District_en":"Yuen Long","District_cn":"元朗區","Name_en":"Tin Shui Sports Centre","Name_cn":"天瑞體育館","Address_en":"7 Tin Shui Road, Tin Shui Wai, Yuen Long","Address_cn":"元朗天水圍天瑞路7號","GIHS":"NA453y8t3Y","Size_en":"145m<sup>2<\/sup>","Size_cn":"145平方米","Phone":"2446 6609 ","Longitude":"113-59-53","Latitude":"22-27-17"},{"District_en":"Yuen Long","District_cn":"元朗區","Name_en":"Tin Shui Wai Sports Centre","Name_cn":"天水圍體育館","Address_en":"1 Tin Pak Road, Tin Shui Wai","Address_cn":"天水圍天柏路1號","GIHS":"s82ZhTsvAe","Size_en":"150m<sup>2<\/sup>","Size_cn":"150平方米","Phone":"2446 4778 ","Longitude":"114-0-24","Latitude":"22-27-18"},{"District_en":"Yuen Long","District_cn":"元朗區","Name_en":"Yuen Long Sports Centre","Name_cn":"元朗體育館","Address_en":"3\/F, Yuen Long Leisure and Cultural Building, 52 Ma Tin Road, Yuen Long","Address_cn":"元朗馬田路52號元朗文化康樂大樓3樓","GIHS":"HqrSUV6WOM","Size_en":"165m<sup>2<\/sup>","Size_cn":"165平方米","Phone":"2891 9207","Longitude":"114-1-26","Latitude":"22-26-29"}]